{"fetched_at":"2026-03-29T16:36:15Z","count":15609,"tles":[{"name":"STARLINK-31181","line1":"1 58746U 24005U   26087.92365986 -.00002235  00000+0 -71775-4 0  9996","line2":"2 58746  43.0049 318.8970 0001968 268.7248  91.3378 15.27555128125223","category":"Starlink"}]}